{
  "type": "FeatureCollection",
  "features": [
    {
      "type": "Feature",
      "properties": {
        "norad_id": 62876,
        "name": "QZS-6 (QZSS/PRN 200)",
        "group": "gnss",
        "lat": 0.03636967649130121,
        "lon": 122.98515086141384,
        "alt_km": 35791.373932509196,
        "timestamp": "2025-12-13T20:38:51.247615+00:00",
        "meta_object_name": "QZS-6 (QZSS/PRN 200)",
        "meta_object_id": "2025-023A",
        "meta_epoch": "2025-12-13T03:36:28.339200",
        "meta_mean_motion": 1.0027447,
        "meta_eccentricity": 0.00016706,
        "meta_inclination": 0.0327,
        "meta_ra_of_asc_node": 56.555,
        "meta_arg_of_pericenter": 214.4683,
        "meta_mean_anomaly": 315.6784,
        "meta_ephemeris_type": 0,
        "meta_classification_type": "U",
        "meta_norad_cat_id": 62876,
        "meta_element_set_no": 999,
        "meta_rev_at_epoch": 309,
        "meta_bstar": 0,
        "meta_mean_motion_dot": -2.2e-06,
        "meta_mean_motion_ddot": 0,
        "tle_line1": "1 62876U 25023A   25347.15032800 -.00000220  00000+0  00000+0 0  9994",
        "tle_line2": "2 62876   0.0327  56.5550 0001670 214.4683 315.6784  1.00274470  3092"
      },
      "geometry": {
        "type": "Point",
        "coordinates": [
          122.98515086141384,
          0.03636967649130121
        ]
      }
    },
    {
      "type": "Feature",
      "properties": {
        "norad_id": 63130,
        "name": "COSMOS 2584 (704K)",
        "group": "gnss",
        "lat": 50.85714448021784,
        "lon": 114.07474071669638,
        "alt_km": 19142.171470179495,
        "timestamp": "2025-12-13T20:38:51.247634+00:00",
        "meta_object_name": "COSMOS 2584 (704K)",
        "meta_object_id": "2025-042A",
        "meta_epoch": "2025-12-11T21:45:20.522592",
        "meta_mean_motion": 2.13103011,
        "meta_eccentricity": 0.00076483,
        "meta_inclination": 64.9756,
        "meta_ra_of_asc_node": 79.1743,
        "meta_arg_of_pericenter": 217.1196,
        "meta_mean_anomaly": 142.8438,
        "meta_ephemeris_type": 0,
        "meta_classification_type": "U",
        "meta_norad_cat_id": 63130,
        "meta_element_set_no": 999,
        "meta_rev_at_epoch": 605,
        "meta_bstar": 0,
        "meta_mean_motion_dot": -3.5e-07,
        "meta_mean_motion_ddot": 0,
        "tle_line1": "1 63130U 25042A   25345.90648753 -.00000035  00000+0  00000+0 0  9994",
        "tle_line2": "2 63130  64.9756  79.1743 0007648 217.1196 142.8438  2.13103011  6058"
      },
      "geometry": {
        "type": "Point",
        "coordinates": [
          114.07474071669638,
          50.85714448021784
        ]
      }
    },
    {
      "type": "Feature",
      "properties": {
        "norad_id": 64202,
        "name": "GPS BIII-8  (PRN 21)",
        "group": "gnss",
        "lat": 0.7116250484422462,
        "lon": -141.88542376604474,
        "alt_km": 20192.18897296683,
        "timestamp": "2025-12-13T20:38:51.247650+00:00",
        "meta_object_name": "GPS BIII-8  (PRN 21)",
        "meta_object_id": "2025-116A",
        "meta_epoch": "2025-12-13T02:48:10.465056",
        "meta_mean_motion": 2.00558313,
        "meta_eccentricity": 0.00055988,
        "meta_inclination": 55.106,
        "meta_ra_of_asc_node": 38.6253,
        "meta_arg_of_pericenter": 307.9903,
        "meta_mean_anomaly": 54.3389,
        "meta_ephemeris_type": 0,
        "meta_classification_type": "U",
        "meta_norad_cat_id": 64202,
        "meta_element_set_no": 999,
        "meta_rev_at_epoch": 414,
        "meta_bstar": 0,
        "meta_mean_motion_dot": -9.8e-07,
        "meta_mean_motion_ddot": 0,
        "tle_line1": "1 64202U 25116A   25347.11678779 -.00000098  00000+0  00000+0 0  9992",
        "tle_line2": "2 64202  55.1060  38.6253 0005598 307.9903  54.3389  2.00558313  4146"
      },
      "geometry": {
        "type": "Point",
        "coordinates": [
          -141.88542376604474,
          0.7116250484422462
        ]
      }
    },
    {
      "type": "Feature",
      "properties": {
        "norad_id": 65590,
        "name": "COSMOS 2596 (708K)",
        "group": "gnss",
        "lat": 2.4502680911273225,
        "lon": 140.26746718016423,
        "alt_km": 19152.758217182087,
        "timestamp": "2025-12-13T20:38:51.247661+00:00",
        "meta_object_name": "COSMOS 2596 (708K)",
        "meta_object_id": "2025-206B",
        "meta_epoch": "2025-12-13T03:40:38.538048",
        "meta_mean_motion": 2.13100493,
        "meta_eccentricity": 0.00140265,
        "meta_inclination": 64.7439,
        "meta_ra_of_asc_node": 321.4594,
        "meta_arg_of_pericenter": 306.3445,
        "meta_mean_anomaly": 48.5588,
        "meta_ephemeris_type": 0,
        "meta_classification_type": "U",
        "meta_norad_cat_id": 65590,
        "meta_element_set_no": 999,
        "meta_rev_at_epoch": 194,
        "meta_bstar": 0,
        "meta_mean_motion_dot": -6.1e-07,
        "meta_mean_motion_ddot": 0,
        "tle_line1": "1 65590U 25206B   25347.15322382 -.00000061  00000+0  00000+0 0  9993",
        "tle_line2": "2 65590  64.7439 321.4594 0014026 306.3445  48.5588  2.13100493  1941"
      },
      "geometry": {
        "type": "Point",
        "coordinates": [
          140.26746718016423,
          2.4502680911273225
        ]
      }
    }
  ]
}